{
  "type": "FeatureCollection",
  "features": [
    {
      "type": "Feature",
      "properties": {
        "norad_id": 34560,
        "name": "COSMOS 2251 DEB",
        "group": "cosmos-2251-debris",
        "lat": 16.718664710918237,
        "lon": -71.76106553448709,
        "alt_km": 645.3759656045404,
        "timestamp": "2025-12-27T14:26:30.915981+00:00",
        "meta_object_name": "COSMOS 2251 DEB",
        "meta_object_id": "1993-036UW",
        "meta_epoch": "2025-12-27T01:27:56.372832",
        "meta_mean_motion": 14.72514368,
        "meta_eccentricity": 0.00134839,
        "meta_inclination": 74.0165,
        "meta_ra_of_asc_node": 114.2311,
        "meta_arg_of_pericenter": 197.7057,
        "meta_mean_anomaly": 339.8714,
        "meta_ephemeris_type": 0,
        "meta_classification_type": "U",
        "meta_norad_cat_id": 34560,
        "meta_element_set_no": 999,
        "meta_rev_at_epoch": 88462,
        "meta_bstar": 0.0027269728,
        "meta_mean_motion_dot": 0.0001736,
        "meta_mean_motion_ddot": 0,
        "tle_line1": "1 34560U 93036UW  25361.06106913  .00017360  00000+0  27270-2 0  9998",
        "tle_line2": "2 34560  74.0165 114.2311 0013483 197.7057 339.8714 14.72514368884625"
      },
      "geometry": {
        "type": "Point",
        "coordinates": [
          -71.76106553448709,
          16.718664710918237
        ]
      }
    },
    {
      "type": "Feature",
      "properties": {
        "norad_id": 34563,
        "name": "COSMOS 2251 DEB",
        "group": "cosmos-2251-debris",
        "lat": -10.656290448538542,
        "lon": 172.8727876147318,
        "alt_km": 739.0734310147773,
        "timestamp": "2025-12-27T14:26:30.915991+00:00",
        "meta_object_name": "COSMOS 2251 DEB",
        "meta_object_id": "1993-036UZ",
        "meta_epoch": "2025-12-26T18:37:48.023328",
        "meta_mean_motion": 14.46553942,
        "meta_eccentricity": 0.00139023,
        "meta_inclination": 74.0365,
        "meta_ra_of_asc_node": 177.5011,
        "meta_arg_of_pericenter": 270.8505,
        "meta_mean_anomaly": 100.91,
        "meta_ephemeris_type": 0,
        "meta_classification_type": "U",
        "meta_norad_cat_id": 34563,
        "meta_element_set_no": 999,
        "meta_rev_at_epoch": 88400,
        "meta_bstar": 0.00049252066,
        "meta_mean_motion_dot": 1.75e-05,
        "meta_mean_motion_ddot": 0,
        "tle_line1": "1 34563U 93036UZ  25360.77625027  .00001750  00000+0  49252-3 0  9991",
        "tle_line2": "2 34563  74.0365 177.5011 0013902 270.8505 100.9100 14.46553942884006"
      },
      "geometry": {
        "type": "Point",
        "coordinates": [
          172.8727876147318,
          -10.656290448538542
        ]
      }
    },
    {
      "type": "Feature",
      "properties": {
        "norad_id": 34564,
        "name": "COSMOS 2251 DEB",
        "group": "cosmos-2251-debris",
        "lat": 3.7865966991972373,
        "lon": 29.429379505911587,
        "alt_km": 768.3044045771194,
        "timestamp": "2025-12-27T14:26:30.916002+00:00",
        "meta_object_name": "COSMOS 2251 DEB",
        "meta_object_id": "1993-036VA",
        "meta_epoch": "2025-12-26T21:03:32.956128",
        "meta_mean_motion": 14.40712431,
        "meta_eccentricity": 0.0019493,
        "meta_inclination": 74.031,
        "meta_ra_of_asc_node": 211.855,
        "meta_arg_of_pericenter": 313.8248,
        "meta_mean_anomaly": 67.2563,
        "meta_ephemeris_type": 0,
        "meta_classification_type": "U",
        "meta_norad_cat_id": 34564,
        "meta_element_set_no": 999,
        "meta_rev_at_epoch": 88210,
        "meta_bstar": 0.0002286667,
        "meta_mean_motion_dot": 7.06e-06,
        "meta_mean_motion_ddot": 0,
        "tle_line1": "1 34564U 93036VA  25360.87746477  .00000706  00000+0  22867-3 0  9999",
        "tle_line2": "2 34564  74.0310 211.8550 0019493 313.8248  67.2563 14.40712431882101"
      },
      "geometry": {
        "type": "Point",
        "coordinates": [
          29.429379505911587,
          3.7865966991972373
        ]
      }
    },
    {
      "type": "Feature",
      "properties": {
        "norad_id": 34567,
        "name": "COSMOS 2251 DEB",
        "group": "cosmos-2251-debris",
        "lat": 47.54526722510915,
        "lon": 148.25841665171433,
        "alt_km": 853.5692664736107,
        "timestamp": "2025-12-27T14:26:30.916012+00:00",
        "meta_object_name": "COSMOS 2251 DEB",
        "meta_object_id": "1993-036VD",
        "meta_epoch": "2025-12-26T18:30:40.311360",
        "meta_mean_motion": 14.24032429,
        "meta_eccentricity": 0.00740336,
        "meta_inclination": 74.0413,
        "meta_ra_of_asc_node": 131.5262,
        "meta_arg_of_pericenter": 202.7595,
        "meta_mean_anomaly": 272.239,
        "meta_ephemeris_type": 0,
        "meta_classification_type": "U",
        "meta_norad_cat_id": 34567,
        "meta_element_set_no": 999,
        "meta_rev_at_epoch": 87324,
        "meta_bstar": 0.00027646321,
        "meta_mean_motion_dot": 6.28e-06,
        "meta_mean_motion_ddot": 0,
        "tle_line1": "1 34567U 93036VD  25360.77129990  .00000628  00000+0  27646-3 0  9999",
        "tle_line2": "2 34567  74.0413 131.5262 0074033 202.7595 272.2390 14.24032429873243"
      },
      "geometry": {
        "type": "Point",
        "coordinates": [
          148.25841665171433,
          47.54526722510915
        ]
      }
    },
    {
      "type": "Feature",
      "properties": {
        "norad_id": 34569,
        "name": "COSMOS 2251 DEB",
        "group": "cosmos-2251-debris",
        "lat": -68.25923501947877,
        "lon": 37.31885984454929,
        "alt_km": 836.4169442784314,
        "timestamp": "2025-12-27T14:26:30.916022+00:00",
        "meta_object_name": "COSMOS 2251 DEB",
        "meta_object_id": "1993-036VF",
        "meta_epoch": "2025-12-27T06:47:51.644832",
        "meta_mean_motion": 14.2478831,
        "meta_eccentricity": 0.01579231,
        "meta_inclination": 73.9895,
        "meta_ra_of_asc_node": 171.8379,
        "meta_arg_of_pericenter": 356.915,
        "meta_mean_anomaly": 66.8709,
        "meta_ephemeris_type": 0,
        "meta_classification_type": "U",
        "meta_norad_cat_id": 34569,
        "meta_element_set_no": 999,
        "meta_rev_at_epoch": 87175,
        "meta_bstar": 0.00049613475,
        "meta_mean_motion_dot": 1.29e-05,
        "meta_mean_motion_ddot": 0,
        "tle_line1": "1 34569U 93036VF  25361.28323663  .00001290  00000+0  49613-3 0  9995",
        "tle_line2": "2 34569  73.9895 171.8379 0157923 356.9150  66.8709 14.24788310871754"
      },
      "geometry": {
        "type": "Point",
        "coordinates": [
          37.31885984454929,
          -68.25923501947877
        ]
      }
    },
    {
      "type": "Feature",
      "properties": {
        "norad_id": 34570,
        "name": "COSMOS 2251 DEB",
        "group": "cosmos-2251-debris",
        "lat": -62.27324562097095,
        "lon": 159.2400874141617,
        "alt_km": 1003.9041872688113,
        "timestamp": "2025-12-27T14:26:30.916033+00:00",
        "meta_object_name": "COSMOS 2251 DEB",
        "meta_object_id": "1993-036VG",
        "meta_epoch": "2025-12-27T07:01:34.646304",
        "meta_mean_motion": 13.99845423,
        "meta_eccentricity": 0.01903613,
        "meta_inclination": 73.9553,
        "meta_ra_of_asc_node": 192.973,
        "meta_arg_of_pericenter": 72.2007,
        "meta_mean_anomaly": 105.7081,
        "meta_ephemeris_type": 0,
        "meta_classification_type": "U",
        "meta_norad_cat_id": 34570,
        "meta_element_set_no": 999,
        "meta_rev_at_epoch": 85804,
        "meta_bstar": 0.0005273336,
        "meta_mean_motion_dot": 8.81e-06,
        "meta_mean_motion_ddot": 0,
        "tle_line1": "1 34570U 93036VG  25361.29276211  .00000881  00000+0  52733-3 0  9996",
        "tle_line2": "2 34570  73.9553 192.9730 0190361  72.2007 105.7081 13.99845423858047"
      },
      "geometry": {
        "type": "Point",
        "coordinates": [
          159.2400874141617,
          -62.27324562097095
        ]
      }
    },
    {
      "type": "Feature",
      "properties": {
        "norad_id": 34571,
        "name": "COSMOS 2251 DEB",
        "group": "cosmos-2251-debris",
        "lat": -64.5866693089549,
        "lon": 11.615635498355708,
        "alt_km": 714.773420868306,
        "timestamp": "2025-12-27T14:26:30.916043+00:00",
        "meta_object_name": "COSMOS 2251 DEB",
        "meta_object_id": "1993-036VH",
        "meta_epoch": "2025-12-24T20:40:26.923008",
        "meta_mean_motion": 14.49017935,
        "meta_eccentricity": 0.0064888,
        "meta_inclination": 74.0401,
        "meta_ra_of_asc_node": 159.7142,
        "meta_arg_of_pericenter": 192.1385,
        "meta_mean_anomaly": 167.8215,
        "meta_ephemeris_type": 0,
        "meta_classification_type": "U",
        "meta_norad_cat_id": 34571,
        "meta_element_set_no": 999,
        "meta_rev_at_epoch": 87469,
        "meta_bstar": 0.003002,
        "meta_mean_motion_dot": 0.00011689,
        "meta_mean_motion_ddot": 0,
        "tle_line1": "1 34571U 93036VH  25358.86142272  .00011689  00000+0  30020-2 0  9997",
        "tle_line2": "2 34571  74.0401 159.7142 0064888 192.1385 167.8215 14.49017935874697"
      },
      "geometry": {
        "type": "Point",
        "coordinates": [
          11.615635498355708,
          -64.5866693089549
        ]
      }
    }
  ]
}